OBJECT_NAME,OBJECT_ID,EPOCH,MEAN_MOTION,ECCENTRICITY,INCLINATION,RA_OF_ASC_NODE,ARG_OF_PERICENTER,MEAN_ANOMALY,EPHEMERIS_TYPE,CLASSIFICATION_TYPE,NORAD_CAT_ID,ELEMENT_SET_NO,REV_AT_EPOCH,BSTAR,MEAN_MOTION_DOT,MEAN_MOTION_DDOT
STARLINK-4044,2022-053G,2026-07-12T19:17:45.424608,15.08836588,.0001035,53.1606,312.2128,97.2720,262.8389,0,U,52662,999,22993,.95112E-4,.1226E-4,0
STARLINK-4037,2022-053H,2026-07-12T14:26:18.443040,15.08837603,.0001221,53.1611,313.1235,97.3774,262.7356,0,U,52663,999,22990,-.16026E-4,-.543E-5,0
STARLINK-4070,2022-053J,2026-07-12T13:01:32.565792,15.08821006,.00010142,53.1609,313.3876,98.1548,261.9558,0,U,52664,999,22989,.702549E-4,.83E-5,0
STARLINK-4064,2022-053K,2026-07-12T15:45:48.115296,15.08818993,.0001125,53.1619,312.8780,53.6359,306.4737,0,U,52665,999,22991,.25186E-3,.3721E-4,0
STARLINK-4079,2022-053L,2026-07-12T13:27:56.808288,15.08832052,.000133,53.1623,312.9218,98.1892,261.9251,0,U,52666,999,22990,.15795E-4,-.37E-6,0
STARLINK-4076,2022-053M,2026-07-12T15:40:30.008640,15.08831828,.0001127,53.1611,312.8932,73.3040,286.8075,0,U,52667,999,22991,.2336E-4,.84E-6,0
STARLINK-4067,2022-053N,2026-07-12T20:00:01.999008,15.31685234,.000093,53.1599,310.1311,77.8560,65.9748,0,U,52668,999,553,.11594E-2,.3577E-3,0
STARLINK-3972,2022-053P,2026-07-12T20:00:01.999008,15.14038261,.0001021,53.1599,311.9851,55.4982,315.0339,0,U,52669,999,583,.34733E-2,.64131E-3,0
STARLINK-4075,2022-053Q,2026-07-12T17:31:47.468064,15.08835544,.0001099,53.1608,312.6127,82.0963,278.0153,0,U,52670,999,22992,.15399E-4,-.43E-6,0
STARLINK-4071,2022-053R,2026-07-12T16:54:41.353056,15.08829777,.0001251,53.1615,312.6614,94.2920,265.8215,0,U,52671,999,22991,.31901E-4,.22E-5,0
STARLINK-4073,2022-053S,2026-07-12T13:59:49.134048,15.08826156,.0001259,53.1620,313.2082,96.1014,264.0121,0,U,52672,999,22989,.80223E-4,.989E-5,0
STARLINK-3976,2022-053T,2026-07-12T20:00:01.999008,15.12347842,.0001315,53.1605,311.9733,91.0659,345.6904,0,U,52673,999,584,.35825E-2,.63079E-3,0
STARLINK-3936,2022-053U,2026-07-12T20:00:01.999008,15.67299027,.0001145,53.2168,291.6343,42.1834,34.5918,0,U,52674,999,580,-.47063E-2,-.487553E-2,0
STARLINK-3934,2022-053V,2026-07-12T15:04:43.640832,15.08836297,.0001229,53.1611,303.0036,77.3923,282.7206,0,U,52675,999,23003,.25981E-4,.126E-5,0
STARLINK-4006,2022-053W,2026-07-12T20:00:01.999008,15.11574947,.0001067,53.1597,312.0339,6.7579,17.1881,0,U,52676,999,573,.34871E-2,.60057E-3,0
STARLINK-4074,2022-053Y,2026-07-12T16:56:01.667040,15.08841296,.0001539,53.1604,302.7646,70.2945,289.8212,0,U,52678,999,23004,.10874E-3,.1443E-4,0
STARLINK-4031,2022-053Z,2026-07-12T16:13:37.131744,15.08829935,.0001162,53.1604,302.7897,85.6534,274.4590,0,U,52679,999,23000,.75407E-4,.912E-5,0
STARLINK-3774,2022-053AA,2026-07-12T12:52:12.337824,15.08830130,.00011464,53.1608,303.1857,87.3601,272.7521,0,U,52680,999,23000,.32681883E-4,.232E-5,0
STARLINK-4068,2022-053AB,2026-07-12T16:08:19.150368,15.08831490,.0000832,53.1607,302.8042,87.2928,272.8159,0,U,52681,999,23000,.75614E-4,.916E-5,0
STARLINK-4017,2022-053AC,2026-07-12T13:13:26.787936,15.08831692,.0001227,53.1607,303.3516,79.5415,280.5715,0,U,52682,999,23000,.6299E-4,.714E-5,0
STARLINK-4014,2022-053AE,2026-07-12T16:18:54.975744,15.08832541,.0001143,53.1606,302.7723,90.4689,269.6433,0,U,52684,999,23000,.46655E-4,.455E-5,0
STARLINK-4029,2022-053AF,2026-07-12T14:11:45.601728,15.08818887,.0001297,53.1608,303.1683,90.4688,269.6452,0,U,52685,999,22997,.11295E-3,.1509E-4,0
STARLINK-4005,2022-053AG,2026-07-12T15:06:08.552160,15.08841972,.0000996,53.1610,303.2800,84.7737,275.3368,0,U,52686,999,22998,.9097E-4,.116E-4,0
STARLINK-3981,2022-053AH,2026-07-12T14:06:26.097984,15.08831643,.0000948,53.1605,303.1851,87.9512,272.1588,0,U,52687,999,22997,.10503E-4,-.121E-5,0
STARLINK-4032,2022-053AJ,2026-07-12T15:36:29.839104,15.08833475,.0000979,53.1606,302.7881,78.6278,281.4823,0,U,52688,999,22998,-.35073E-5,-.344E-5,0
STARLINK-4078,2022-053AK,2026-07-12T20:00:01.999008,15.84890624,.0008602,53.1991,191.0599,38.1938,69.0927,0,U,52689,999,602,.13504E-2,.334477E-2,0
STARLINK-4035,2022-053AL,2026-07-12T12:41:38.889312,15.08828646,.00012239,53.1614,303.4476,95.8472,264.2659,0,U,52690,999,22996,.18326133E-4,.4E-7,0
STARLINK-3993,2022-053AN,2026-07-12T19:45:32.122944,15.08835396,.0001235,53.1607,301.8580,83.4362,276.6770,0,U,52692,999,23004,.39581E-4,.342E-5,0
STARLINK-3946,2022-053AP,2026-07-12T13:34:38.895744,15.08827203,.000154,53.1614,303.2887,61.0766,299.0380,0,U,52693,999,23000,.75707E-4,.917E-5,0
STARLINK-4072,2022-053AQ,2026-07-12T16:20:20.474592,15.25016141,.0001407,53.1603,301.0358,93.0370,267.0790,0,U,52694,999,23004,.71727E-3,.17845E-3,0
