STARLINK-4044           
1 52662U 22053G   26193.80399797  .00001226  00000+0  95112-4 0  9998
2 52662  53.1606 312.2128 0001035  97.2720 262.8389 15.08836588229934
STARLINK-4037           
1 52663U 22053H   26193.60160235 -.00000543  00000+0 -16026-4 0  9990
2 52663  53.1611 313.1235 0001221  97.3774 262.7356 15.08837603229906
STARLINK-4070           
1 52664U 22053J   26193.54273803  .00000830  00000+0  70255-4 0  9991
2 52664  53.1609 313.3876 0001014  98.1548 261.9558 15.08821006229898
STARLINK-4064           
1 52665U 22053K   26193.65680689  .00003721  00000+0  25186-3 0  9992
2 52665  53.1619 312.8780 0001125  53.6359 306.4737 15.08818993229915
STARLINK-4079           
1 52666U 22053L   26193.56107417 -.00000037  00000+0  15795-4 0  9990
2 52666  53.1623 312.9218 0001330  98.1892 261.9251 15.08832052229909
STARLINK-4076           
1 52667U 22053M   26193.65312510  .00000084  00000+0  23360-4 0  9991
2 52667  53.1611 312.8932 0001127  73.3040 286.8075 15.08831828229914
STARLINK-4067           
1 52668U 22053N   26193.83335647  .00035770  00000+0  11594-2 0  9992
2 52668  53.1599 310.1311 0000930  77.8560  65.9748 15.31685234  5536
STARLINK-3972           
1 52669U 22053P   26193.83335647  .00064131  00000+0  34733-2 0  9996
2 52669  53.1599 311.9851 0001021  55.4982 315.0339 15.14038261  5838
STARLINK-4075           
1 52670U 22053Q   26193.73041051 -.00000043  00000+0  15399-4 0  9992
2 52670  53.1608 312.6127 0001099  82.0963 278.0153 15.08835544229927
STARLINK-4071           
1 52671U 22053R   26193.70464529  .00000220  00000+0  31901-4 0  9992
2 52671  53.1615 312.6614 0001251  94.2920 265.8215 15.08829777229918
STARLINK-4073           
1 52672U 22053S   26193.58320757  .00000989  00000+0  80223-4 0  9996
2 52672  53.1620 313.2082 0001259  96.1014 264.0121 15.08826156229896
STARLINK-3976           
1 52673U 22053T   26193.83335647  .00063079  00000+0  35825-2 0  9994
2 52673  53.1605 311.9733 0001315  91.0659 345.6904 15.12347842  5847
STARLINK-3936           
1 52674U 22053U   26193.83335647 -.00487553  00000+0 -47063-2 0  9991
2 52674  53.2168 291.6343 0001145  42.1834  34.5918 15.67299027  5803
STARLINK-3934           
1 52675U 22053V   26193.62828288  .00000126  00000+0  25981-4 0  9999
2 52675  53.1611 303.0036 0001229  77.3923 282.7206 15.08836297230038
STARLINK-4006           
1 52676U 22053W   26193.83335647  .00060057  00000+0  34871-2 0  9990
2 52676  53.1597 312.0339 0001067   6.7579  17.1881 15.11574947  5732
STARLINK-4074           
1 52678U 22053Y   26193.70557485  .00001443  00000+0  10874-3 0  9996
2 52678  53.1604 302.7646 0001539  70.2945 289.8212 15.08841296230047
STARLINK-4031           
1 52679U 22053Z   26193.67612421  .00000912  00000+0  75407-4 0  9999
2 52679  53.1604 302.7897 0001162  85.6534 274.4590 15.08829935230003
STARLINK-3774           
1 52680U 22053AA  26193.53625391  .00000232  00000+0  32682-4 0  9999
2 52680  53.1608 303.1857 0001146  87.3601 272.7521 15.08830130230000
STARLINK-4068           
1 52681U 22053AB  26193.67244387  .00000916  00000+0  75614-4 0  9998
2 52681  53.1607 302.8042 0000832  87.2928 272.8159 15.08831490230002
STARLINK-4017           
1 52682U 22053AC  26193.55100449  .00000714  00000+0  62990-4 0  9995
2 52682  53.1607 303.3516 0001227  79.5415 280.5715 15.08831692230007
STARLINK-4014           
1 52684U 22053AE  26193.67980296  .00000455  00000+0  46655-4 0  9998
2 52684  53.1606 302.7723 0001143  90.4689 269.6433 15.08832541230002
STARLINK-4029           
1 52685U 22053AF  26193.59150002  .00001509  00000+0  11295-3 0  9996
2 52685  53.1608 303.1683 0001297  90.4688 269.6452 15.08818887229976
STARLINK-4005           
1 52686U 22053AG  26193.62926565  .00001160  00000+0  90970-4 0  9997
2 52686  53.1610 303.2800 0000996  84.7737 275.3368 15.08841972229980
STARLINK-3981           
1 52687U 22053AH  26193.58780206 -.00000121  00000+0  10503-4 0  9994
2 52687  53.1605 303.1851 0000948  87.9512 272.1588 15.08831643229975
STARLINK-4032           
1 52688U 22053AJ  26193.65034536 -.00000344  00000+0 -35073-5 0  9999
2 52688  53.1606 302.7881 0000979  78.6278 281.4823 15.08833475229986
STARLINK-4078           
1 52689U 22053AK  26193.83335647  .00334477  00000+0  13504-2 0  9994
2 52689  53.1991 191.0599 0008602  38.1938  69.0927 15.84890624  6020
STARLINK-4035           
1 52690U 22053AL  26193.52892233  .00000004  00000+0  18326-4 0  9996
2 52690  53.1614 303.4476 0001223  95.8472 264.2659 15.08828646229964
STARLINK-3993           
1 52692U 22053AN  26193.82328846  .00000342  00000+0  39581-4 0  9996
2 52692  53.1607 301.8580 0001235  83.4362 276.6770 15.08835396230042
STARLINK-3946           
1 52693U 22053AP  26193.56572796  .00000917  00000+0  75707-4 0  9991
2 52693  53.1614 303.2887 0001540  61.0766 299.0380 15.08827203230006
STARLINK-4072           
1 52694U 22053AQ  26193.68079253  .00017845  00000+0  71727-3 0  9990
2 52694  53.1603 301.0358 0001407  93.0370 267.0790 15.25016141230046
